0 SL-14 DEB
1 19137U 78100K   13281.38338826  .00003337  00000-0  22373-1 0  5836
2 19137 082.2894 034.3887 0113304 188.4834 239.5215 12.46594675552869
0 SL-14 DEB
1 19137U 78100K   13282.84123752  .00003693  00000-0  24761-1 0  5847
2 19137 082.2883 033.4497 0113210 186.7771 300.5064 12.46605585553046
0 SL-14 DEB
1 19137U 78100K   13283.61546834  .00003030  00000-0  10000-3 0  5852
2 19137 082.2918 032.9483 0111048 179.1931 180.9812 12.46608529553182
0 SL-14 DEB
1 19137U 78100K   13283.77599531  .00002044  00000-0  10000-3 0  5866
2 19137 082.2890 032.8459 0111065 179.9761 180.1806 12.46600222553201
0 SL-14 DEB
1 19137U 78100K   13284.04445898  .00003880  00000-0  26014-1 0  5851
2 19137 082.2884 032.6743 0113292 184.4750 299.9815 12.46608996553194
0 SL-14 DEB
1 19137U 78100K   13285.30708010  .00002525  00000-0  16910-1 0  5869
2 19137 082.2882 031.8607 0113049 183.0053 205.1057 12.46620509553341
0 SL-14 DEB
1 19137U 78100K   13286.35895447  .00003317  00000-0  22233-1 0  5872
2 19137 082.2873 031.1840 0112779 181.7520 244.6997 12.46627233553483
0 SL-14 DEB
1 19137U 78100K   13287.40393344  .00002753  00000-0  18443-1 0  5880
2 19137 082.2870 030.5098 0112164 181.3732 252.5194 12.46628124553619
0 SL-14 DEB
1 19137U 78100K   13288.77984741  .00003585  00000-0  24036-1 0  5898
2 19137 082.2871 029.6245 0111967 178.9577 306.8816 12.46641244553782
0 SL-14 DEB
1 19137U 78100K   13289.74117745  .00003082  00000-0  20658-1 0  5908
2 19137 082.2869 029.0051 0111040 178.7388 299.3673 12.46647495553903
0 SL-14 DEB
1 19137U 78100K   13290.67795661  .00002888  00000-0  10000-3 0  5928
2 19137 082.2825 028.4022 0111698 175.5103 184.7463 12.46650375554024
0 SL-14 DEB
1 19137U 78100K   13291.25389801  .00002836  00000-0  19003-1 0  5910
2 19137 082.2868 028.0310 0110743 176.0415 247.7734 12.46655687554098
0 SL-14 DEB
1 19137U 78100K   13292.29854471  .00003437  00000-0  23047-1 0  5927
2 19137 082.2866 027.3581 0110163 174.7894 255.0945 12.46664370554220
0 SL-14 DEB
1 19137U 78100K   13293.34072072  .00003129  00000-0  20982-1 0  5937
2 19137 082.2863 026.6866 0109465 173.6143 251.2824 12.46668770554359
0 SL-14 DEB
1 19137U 78100K   13294.30206384  .00004214  00000-0  28278-1 0  5942
2 19137 082.2859 026.0673 0108766 172.4591 244.8757 12.46682193554472
0 SL-14 DEB
1 19137U 78100K   13295.34926093  .00003947  00000-0  26497-1 0  5957
2 19137 082.2856 025.3924 0107916 171.2808 263.6307 12.46681930554607
